OBJECT_NAME,OBJECT_ID,EPOCH,MEAN_MOTION,ECCENTRICITY,INCLINATION,RA_OF_ASC_NODE,ARG_OF_PERICENTER,MEAN_ANOMALY,EPHEMERIS_TYPE,CLASSIFICATION_TYPE,NORAD_CAT_ID,ELEMENT_SET_NO,REV_AT_EPOCH,BSTAR,MEAN_MOTION_DOT,MEAN_MOTION_DDOT
COSMOS 2531 (RODNIK-S 17),2018-097B,2026-06-12T05:56:07.216800,12.42912268,.00178347,82.5193,226.4027,68.5389,291.7590,0,U,43752,999,34169,-.5206991E-3,-.62E-6,0
COSMOS 2532 (RODNIK-S 18),2018-097C,2026-06-12T06:36:49.221216,12.42909198,.00192282,82.5137,225.1734,70.3252,289.9901,0,U,43753,999,34166,-.52941E-3,-.63E-6,0
MINXSS-2,2018-099A,2026-06-12T04:12:01.200096,15.46568053,.0006336,97.4547,239.3135,276.1289,83.9238,0,U,43758,999,41335,.77409361E-3,.38574E-3,0
SIRION PATHFINDER-2,2018-099B,2026-06-12T02:15:59.093280,15.14503139,.00075735,97.4258,212.2727,325.8015,34.2728,0,U,43759,999,41185,.23993243E-3,.4355E-4,0
AISTECHSAT 2,2018-099L,2026-06-12T03:16:52.915584,15.15399211,.00035553,97.4300,211.2811,334.4945,25.6112,0,U,43768,999,41151,.27602596E-3,.5148E-4,0
FOX-1CLIFF (AO-95),2018-099N,2026-06-12T03:53:04.497504,15.26608215,.00085134,97.4395,223.4266,16.6170,343.5346,0,U,43770,999,41245,.46305131E-3,.12073E-3,0
2018-099Q,2018-099Q,2026-06-12T04:37:16.660416,15.88646112,.00084084,97.4137,244.2718,259.7748,100.2576,0,U,43772,999,41387,.15773635E-2,.438701E-2,.73087026E-4
RANGE-A,2018-099R,2026-06-12T02:04:59.844864,15.13344692,.00104055,97.3971,205.8150,14.8398,345.3137,0,U,43773,999,41172,.21805183E-3,.3827E-4,0
SNUSAT-2,2018-099AA,2026-06-12T03:19:50.840832,15.21762760,.00088572,97.4069,216.5999,319.4163,40.6412,0,U,43782,999,41226,.30685776E-3,.6896E-4,0
SNUGLITE,2018-099AC,2026-06-12T02:21:32.321664,15.27067610,.00014384,97.3878,217.4283,331.6355,28.4806,0,U,43784,999,41254,.42919329E-3,.1133E-3,0
ITASAT,2018-099AE,2026-06-12T01:56:51.893952,15.18993689,.00126633,97.4034,214.6947,18.3409,341.8279,0,U,43786,999,41213,.30910923E-3,.6413E-4,0
EAGLET-I,2018-099AJ,2026-06-12T02:13:01.962048,15.12900595,.00111838,97.4234,212.8956,11.8995,348.2498,0,U,43790,999,41156,.23078801E-3,.4004E-4,0
ESEO,2018-099AL,2026-06-12T01:23:51.733824,15.04226823,.00118567,97.3967,200.6657,357.1607,2.9550,0,U,43792,999,41103,.14286145E-3,.193E-4,0
THEA,2018-099AQ,2026-06-12T04:22:38.329248,15.34849536,.00059353,97.4449,232.8263,306.2554,53.8140,0,U,43796,999,41192,.56167008E-3,.18933E-3,0
ASTROCAST 0.1,2018-099AS,2026-06-12T03:49:18.533856,15.49206342,.00047597,97.4383,241.5006,222.0222,138.0665,0,U,43798,999,41365,.68409834E-3,.37327E-3,0
JY1SAT (JO-97),2018-099AX,2026-06-12T03:17:01.038912,15.33493153,.00041268,97.4133,225.9535,287.1205,72.9585,0,U,43803,999,41285,.48284335E-3,.1557E-3,0
SUOMI-100,2018-099AY,2026-06-12T02:23:14.502624,15.28298962,.0008385,97.4198,223.5118,300.8442,59.1973,0,U,43804,999,41264,.39404091E-3,.10802E-3,0
CENTAURI-1,2018-099BD,2026-06-12T02:59:44.943072,15.16314955,.00135836,97.4225,214.9528,352.5760,7.5270,0,U,43809,999,41173,.2326678E-3,.4452E-4,0
GLOBAL-2,2018-099BG,2026-06-12T02:24:32.653152,15.08643857,.00065175,97.3563,199.8253,156.7525,203.4000,0,U,43812,999,41114,.18466666E-3,.2832E-4,0
SEAHAWK-1,2018-099BQ,2026-06-12T03:24:44.976672,15.22726339,.00071269,97.3968,215.7046,336.4269,23.6640,0,U,43820,999,41176,.34225538E-3,.792E-4,0
SAUDISAT 5A,2018-102A,2026-06-12T06:04:49.755360,15.27998022,.00107086,97.3076,224.9291,144.3752,215.8204,0,U,43831,999,41492,.21793995E-3,.5889E-4,0
SAUDISAT 5B,2018-102C,2026-06-12T06:33:09.841248,15.28257618,.00113587,97.3184,228.0092,146.6207,213.5751,0,U,43833,999,41504,.20082483E-3,.5464E-4,0
2018-102D,2018-102D,2026-06-12T07:11:20.866848,15.66664757,.00033738,97.3445,252.2261,100.7407,259.4233,0,U,43834,999,41648,.7294283E-3,.76891E-3,0
ISAT,2018-111D,2026-06-12T07:15:29.669472,15.64436820,.00011319,97.5883,98.1505,58.4600,301.6769,0,U,43879,999,41040,.10837627E-2,.104956E-2,0
UWE-4,2018-111E,2026-06-12T00:53:21.030144,15.45812047,.00064463,97.5852,91.1918,4.5905,355.5402,0,U,43880,999,40998,.78107874E-3,.37924E-3,0
D-STAR ONE (SPARROW),2018-111F,2026-06-12T07:10:06.224160,15.73043119,.00045017,97.6109,103.6790,104.4111,255.7652,0,U,43881,999,41060,.11960774E-2,.165899E-2,0
JILIN-1 09,2019-005B,2026-06-12T05:51:44.759520,15.20472882,.00037886,97.4738,258.2490,104.3560,255.8096,0,U,43943,999,40839,.21206378E-3,.4562E-4,0
JILIN-1 10,2019-005E,2026-06-12T06:33:27.765792,15.25671699,.00066613,97.4783,262.0775,300.6269,59.4312,0,U,43946,999,40856,.23838884E-3,.5999E-4,0
EGYPTSAT-A (MISRSAT-A),2019-008A,2026-06-12T06:00:00.107136,14.72300807,.00012227,98.0128,228.0782,92.8590,267.2758,0,U,44047,999,39251,.49572817E-4,.264E-5,0
EMISAT,2019-018A,2026-06-12T05:21:50.897664,14.43684330,.00174772,98.4650,222.0509,230.4576,129.5071,0,U,44078,999,37934,.12502332E-4,-.2E-7,0
