{"_default": { "5": {"norad_id": "43881", "name": "D-STAR ONE SPARROW", "tle1": "1 43881U 18111F   26163.29868315  .00165899  00000-0  11961-2 0  9994", "tle2": "2 43881  97.6109 103.6790 0004502 104.4111 255.7652 15.73043119410604", "object_type": "PAYLOAD", "criticality_score": 9.0, "last_updated": "2026-06-12T14:14:32.686762+00:00", "maneuver_count": 0, "owner": "N/A"}, "6": {"norad_id": "43790", "name": "EAGLET 1", "tle1": "1 43790U 18099AJ  26163.09238382  .00004004  00000-0  23079-3 0  9995", "tle2": "2 43790  97.4234 212.8956 0011184  11.8995 348.2498 15.12900595411567", "object_type": "PAYLOAD", "criticality_score": 9.0, "last_updated": "2026-06-12T14:14:32.686762+00:00", "maneuver_count": 0, "owner": "N/A"}, "7": {"norad_id": "43773", "name": "RANGE A", "tle1": "1 43773U 18099R   26163.08680376  .00003827  00000-0  21805-3 0  9996", "tle2": "2 43773  97.3971 205.8150 0010405  14.8398 345.3137 15.13344692411725", "object_type": "PAYLOAD", "criticality_score": 9.0, "last_updated": "2026-06-12T14:14:32.686762+00:00", "maneuver_count": 0, "owner": "N/A"}, "8": {"norad_id": "43770", "name": "AO-95", "tle1": "1 43770U 18099N   26163.16185761  .00012073  00000-0  46305-3 0  9995", "tle2": "2 43770  97.4395 223.4266 0008513  16.6170 343.5346 15.26608215412453", "object_type": "PAYLOAD", "criticality_score": 9.0, "last_updated": "2026-06-12T14:14:32.686762+00:00", "maneuver_count": 0, "owner": "N/A"}, "69": {"norad_id": "43880", "name": "UWE-4", "tle1": "1 43880U 18111E   26163.03704896  .00037924  00000-0  78108-3 0  9992", "tle2": "2 43880  97.5852  91.1918 0006446   4.5905 355.5402 15.45812047409984", "object_type": "PAYLOAD", "criticality_score": 9.0, "last_updated": "2026-06-12T14:14:32.686762+00:00", "maneuver_count": 0, "owner": "N/A"}, "70": {"norad_id": "43804", "name": "SUOMI100", "tle1": "1 43804U 18099AY  26163.09947341  .00010802  00000-0  39404-3 0  9995", "tle2": "2 43804  97.4198 223.5118 0008385 300.8442  59.1973 15.28298962412649", "object_type": "PAYLOAD", "criticality_score": 9.0, "last_updated": "2026-06-12T14:14:32.686762+00:00", "maneuver_count": 0, "owner": "N/A"}, "71": {"norad_id": "43798", "name": "ASTROCAST-01", "tle1": "1 43798U 18099AS  26163.15924229  .00037327  00000-0  68410-3 0  9994", "tle2": "2 43798  97.4383 241.5006 0004760 222.0222 138.0665 15.49206342413658", "object_type": "PAYLOAD", "criticality_score": 9.0, "last_updated": "2026-06-12T14:14:32.686762+00:00", "maneuver_count": 0, "owner": "N/A"}, "72": {"norad_id": "43786", "name": "ITASAT", "tle1": "1 43786U 18099AE  26163.08115618  .00006413  00000-0  30911-3 0  9994", "tle2": "2 43786  97.4034 214.6947 0012663  18.3409 341.8279 15.18993689412137", "object_type": "PAYLOAD", "criticality_score": 9.0, "last_updated": "2026-06-12T14:14:32.686762+00:00", "maneuver_count": 0, "owner": "N/A"}, "73": {"norad_id": "43784", "name": "SNUGLITE", "tle1": "1 43784U 18099AC  26163.09829076  .00011330  00000-0  42919-3 0  9998", "tle2": "2 43784  97.3878 217.4283 0001438 331.6355  28.4806 15.27067610412548", "object_type": "PAYLOAD", "criticality_score": 9.0, "last_updated": "2026-06-12T14:14:32.686762+00:00", "maneuver_count": 0, "owner": "N/A"}, "74": {"norad_id": "43782", "name": "SNUSAT-2", "tle1": "1 43782U 18099AA  26163.13878288  .00006896  00000-0  30686-3 0  9999", "tle2": "2 43782  97.4069 216.5999 0008857 319.4163  40.6412 15.21762760412266", "object_type": "PAYLOAD", "criticality_score": 9.0, "last_updated": "2026-06-12T14:14:32.686762+00:00", "maneuver_count": 0, "owner": "N/A"}, "75": {"norad_id": "43772", "name": "OBJECT Q", "tle1": "1 43772U 18099Q   26163.19255394  .00438701  73087-4  15774-2 0  9994", "tle2": "2 43772  97.4137 244.2718 0008408 259.7748 100.2576 15.88646112413872", "object_type": "PAYLOAD", "criticality_score": 9.0, "last_updated": "2026-06-12T14:14:32.686762+00:00", "maneuver_count": 0, "owner": "N/A"}, "103": {"norad_id": "43768", "name": "AISTECHSAT-2", "tle1": "1 43768U 18099L   26163.13672356  .00005148  00000-0  27603-3 0  9995", "tle2": "2 43768  97.4300 211.2811 0003555 334.4945  25.6112 15.15399211411515", "object_type": "PAYLOAD", "criticality_score": 9.0, "last_updated": "2026-06-12T14:14:32.686762+00:00", "maneuver_count": 0, "owner": "N/A"}, "104": {"norad_id": "43758", "name": "MINXSS-2", "tle1": "1 43758U 18099A   26163.17501389  .00038574  00000-0  77409-3 0  9993", "tle2": "2 43758  97.4547 239.3135 0006336 276.1289  83.9238 15.46568053413356", "object_type": "PAYLOAD", "criticality_score": 9.0, "last_updated": "2026-06-12T14:14:32.686762+00:00", "maneuver_count": 0, "owner": "N/A"}, "133": {"norad_id": "43879", "name": "ISAT", "tle1": "1 43879U 18111D   26163.30242673  .00104956  00000-0  10838-2 0  9995", "tle2": "2 43879  97.5883  98.1505 0001132  58.4600 301.6769 15.64436820410401", "object_type": "PAYLOAD", "criticality_score": 9.0, "last_updated": "2026-06-12T14:14:32.686762+00:00", "maneuver_count": 0, "owner": "N/A"}, "134": {"norad_id": "43809", "name": "CENTAURI-1", "tle1": "1 43809U 18099BD  26163.12482573  .00004452  00000-0  23267-3 0  9999", "tle2": "2 43809  97.4225 214.9528 0013584 352.5760   7.5270 15.16314955411732", "object_type": "PAYLOAD", "criticality_score": 9.0, "last_updated": "2026-06-12T14:14:32.686762+00:00", "maneuver_count": 0, "owner": "N/A"}, "135": {"norad_id": "43803", "name": "JY1SAT", "tle1": "1 43803U 18099AX  26163.13681758  .00015570  00000-0  48284-3 0  9999", "tle2": "2 43803  97.4133 225.9535 0004127 287.1205  72.9585 15.33493153412850", "object_type": "PAYLOAD", "criticality_score": 9.0, "last_updated": "2026-06-12T14:14:32.686762+00:00", "maneuver_count": 0, "owner": "N/A"}, "136": {"norad_id": "43792", "name": "ESEO", "tle1": "1 43792U 18099AL  26163.05823766  .00001930  00000-0  14286-3 0  9994", "tle2": "2 43792  97.3967 200.6657 0011857 357.1607   2.9550 15.04226823411038", "object_type": "PAYLOAD", "criticality_score": 9.0, "last_updated": "2026-06-12T14:14:32.686762+00:00", "maneuver_count": 0, "owner": "N/A"}, "196": {"norad_id": "43943", "name": "JILIN-01-09", "tle1": "1 43943U 19005B   26163.24426805  .00004562  00000-0  21206-3 0  9998", "tle2": "2 43943  97.4738 258.2490 0003789 104.3560 255.8096 15.20472882408397", "object_type": "PAYLOAD", "criticality_score": 9.0, "last_updated": "2026-06-12T14:14:32.686762+00:00", "maneuver_count": 0, "owner": "N/A"}, "197": {"norad_id": "43946", "name": "JILIN-01-10", "tle1": "1 43946U 19005E   26163.27323803  .00005999  00000-0  23839-3 0  9997", "tle2": "2 43946  97.4783 262.0775 0006661 300.6269  59.4312 15.25671699408568", "object_type": "PAYLOAD", "criticality_score": 9.0, "last_updated": "2026-06-12T14:14:32.686762+00:00", "maneuver_count": 0, "owner": "N/A"}, "212": {"norad_id": "43759", "name": "SIRION PATHFINDER-2", "tle1": "1 43759U 18099B   26163.09443395  .00004355  00000-0  23993-3 0  9996", "tle2": "2 43759  97.4258 212.2727 0007574 325.8015  34.2728 15.14503139411852", "object_type": "PAYLOAD", "criticality_score": 9.0, "last_updated": "2026-06-12T14:14:32.686762+00:00", "maneuver_count": 0, "owner": "N/A"}, "236": {"norad_id": "43820", "name": "SEAHAWK-1", "tle1": "1 43820U 18099BQ  26163.14218723  .00007920  00000-0  34226-3 0  9998", "tle2": "2 43820  97.3968 215.7046 0007127 336.4269  23.6640 15.22726339411766", "object_type": "PAYLOAD", "criticality_score": 9.0, "last_updated": "2026-06-12T14:14:32.686762+00:00", "maneuver_count": 0, "owner": "N/A"}, "269": {"norad_id": "43834", "name": "OBJECT D", "tle1": "1 43834U 18102D   26163.29954707  .00076891  00000-0  72943-3 0  9994", "tle2": "2 43834  97.3445 252.2261 0003374 100.7407 259.4233 15.66664757416486", "object_type": "PAYLOAD", "criticality_score": 9.0, "last_updated": "2026-06-12T14:14:32.686762+00:00", "maneuver_count": 0, "owner": "N/A"}, "272": {"norad_id": "43812", "name": "GLOBAL-2", "tle1": "1 43812U 18099BG  26163.10037793  .00002832  00000-0  18467-3 0  9997", "tle2": "2 43812  97.3563 199.8253 0006518 156.7525 203.4000 15.08643857411148", "object_type": "PAYLOAD", "criticality_score": 9.0, "last_updated": "2026-06-12T14:14:32.686762+00:00", "maneuver_count": 0, "owner": "N/A"}, "395": {"norad_id": "43831", "name": "SAUDISAT 5A", "tle1": "1 43831U 18102A   26163.25335365  .00005889  00000-0  21794-3 0  9997", "tle2": "2 43831  97.3076 224.9291 0010709 144.3752 215.8204 15.27998022414922", "object_type": "PAYLOAD", "criticality_score": 9.0, "last_updated": "2026-06-12T14:14:32.686762+00:00", "maneuver_count": 0, "owner": "N/A"}, "396": {"norad_id": "43833", "name": "SAUDISAT 5B", "tle1": "1 43833U 18102C   26163.27303057  .00005464  00000-0  20082-3 0  9992", "tle2": "2 43833  97.3184 228.0092 0011359 146.6207 213.5751 15.28257618415046", "object_type": "PAYLOAD", "criticality_score": 9.0, "last_updated": "2026-06-12T14:14:32.686762+00:00", "maneuver_count": 0, "owner": "N/A"}, "418": {"norad_id": "44047", "name": "EGYPTSAT A", "tle1": "1 44047U 19008A   26163.25000124  .00000264  00000-0  49573-4 0  9993", "tle2": "2 44047  98.0128 228.0782 0001223  92.8590 267.2758 14.72300807392518", "object_type": "PAYLOAD", "criticality_score": 9.0, "last_updated": "2026-06-12T14:14:32.686762+00:00", "maneuver_count": 0, "owner": "N/A"}, "461": {"norad_id": "44078", "name": "EMISAT", "tle1": "1 44078U 19018A   26163.22350576 -.00000002  00000-0  12502-4 0  9997", "tle2": "2 44078  98.4650 222.0509 0017477 230.4576 129.5071 14.43684330379347", "object_type": "PAYLOAD", "criticality_score": 9.0, "last_updated": "2026-06-12T14:14:32.686762+00:00", "maneuver_count": 0, "owner": "N/A"}, "609": {"norad_id": "43752", "name": "COSMOS 2531", "tle1": "1 43752U 18097B   26163.24730575 -.00000062  00000-0 -52070-3 0  9994", "tle2": "2 43752  82.5193 226.4027 0017835  68.5389 291.7590 12.42912268341690", "object_type": "PAYLOAD", "criticality_score": 9.0, "last_updated": "2026-06-12T14:14:32.686762+00:00", "maneuver_count": 0, "owner": "N/A"}, "610": {"norad_id": "43753", "name": "COSMOS 2532", "tle1": "1 43753U 18097C   26163.27556969 -.00000063  00000-0 -52941-3 0  9999", "tle2": "2 43753  82.5137 225.1734 0019228  70.3252 289.9901 12.42909198341668", "object_type": "PAYLOAD", "criticality_score": 9.0, "last_updated": "2026-06-12T14:14:32.686762+00:00", "maneuver_count": 0, "owner": "N/A"}, "633": {"norad_id": "43796", "name": "THEA", "tle1": "1 43796U 18099AQ  26163.18238807  .00018933  00000-0  56167-3 0  9993", "tle2": "2 43796  97.4449 232.8263 0005935 306.2554  53.8140 15.34849536411927", "object_type": "PAYLOAD", "criticality_score": 9.0, "last_updated": "2026-06-12T14:14:32.686762+00:00", "maneuver_count": 0, "owner": "N/A"}}}